{"type": "FeatureCollection", "features": [ {"type": "Feature", "properties": {"norad_id": 67151, "name": "KUIPER-00246", "group": "last-30-days", "lat": 6.5785141966892455, "lon": -123.78950503538626, "alt_km": 456.9276842287818, "timestamp": "2025-12-25T22:42:15.712917+00:00", "meta": {"OBJECT_NAME": "KUIPER-00246", "OBJECT_ID": "2025-301U", "EPOCH": "2025-12-25T18:00:02.000160", "MEAN_MOTION": 15.35884822, "ECCENTRICITY": 0.0003798, "INCLINATION": 51.8734, "RA_OF_ASC_NODE": 62.3532, "ARG_OF_PERICENTER": 108.5052, "MEAN_ANOMALY": 58.612, "EPHEMERIS_TYPE": 0, "CLASSIFICATION_TYPE": "U", "NORAD_CAT_ID": 67151, "ELEMENT_SET_NO": 999, "REV_AT_EPOCH": 238, "BSTAR": 0.00055559, "MEAN_MOTION_DOT": 0.00019371, "MEAN_MOTION_DDOT": 0}, "tle": {"line1": "1 67151U 25301U   25359.75002315  .00019371  00000+0  55559-3 0  9990", "line2": "2 67151  51.8734  62.3532 0003798 108.5052  58.6120 15.35884822  2380"}}, "geometry": {"type": "Point", "coordinates": [-123.78950503538626, 6.5785141966892455]}}, {"type": "Feature", "properties": {"norad_id": 67152, "name": "KUIPER-00247", "group": "last-30-days", "lat": 50.322672318744054, "lon": 170.26293246513833, "alt_km": 452.2591008014833, "timestamp": "2025-12-25T22:42:15.712926+00:00", "meta": {"OBJECT_NAME": "KUIPER-00247", "OBJECT_ID": "2025-301V", "EPOCH": "2025-12-25T18:00:02.000160", "MEAN_MOTION": 15.33965419, "ECCENTRICITY": 0.0011162, "INCLINATION": 51.8623, "RA_OF_ASC_NODE": 62.498, "ARG_OF_PERICENTER": 152.0701, "MEAN_ANOMALY": 306.8118, "EPHEMERIS_TYPE": 0, "CLASSIFICATION_TYPE": "U", "NORAD_CAT_ID": 67152, "ELEMENT_SET_NO": 999, "REV_AT_EPOCH": 228, "BSTAR": 0.00060071, "MEAN_MOTION_DOT": 0.00019746, "MEAN_MOTION_DDOT": 0}, "tle": {"line1": "1 67152U 25301V   25359.75002315  .00019746  00000+0  60071-3 0  9992", "line2": "2 67152  51.8623  62.4980 0011162 152.0701 306.8118 15.33965419  2289"}}, "geometry": {"type": "Point", "coordinates": [170.26293246513833, 50.322672318744054]}}, {"type": "Feature", "properties": {"norad_id": 67153, "name": "KUIPER-00248", "group": "last-30-days", "lat": 40.00308031667379, "lon": -159.73541050128992, "alt_km": 450.88662569434837, "timestamp": "2025-12-25T22:42:15.712936+00:00", "meta": {"OBJECT_NAME": "KUIPER-00248", "OBJECT_ID": "2025-301W", "EPOCH": "2025-12-25T18:00:02.000160", "MEAN_MOTION": 15.3464857, "ECCENTRICITY": 0.0008642, "INCLINATION": 51.8672, "RA_OF_ASC_NODE": 62.4517, "ARG_OF_PERICENTER": 140.4734, "MEAN_ANOMALY": 341.171, "EPHEMERIS_TYPE": 0, "CLASSIFICATION_TYPE": "U", "NORAD_CAT_ID": 67153, "ELEMENT_SET_NO": 999, "REV_AT_EPOCH": 253, "BSTAR": 0.00059851, "MEAN_MOTION_DOT": 0.00020096, "MEAN_MOTION_DDOT": 0}, "tle": {"line1": "1 67153U 25301W   25359.75002315  .00020096  00000+0  59851-3 0  9997", "line2": "2 67153  51.8672  62.4517 0008642 140.4734 341.1710 15.34648570  2531"}}, "geometry": {"type": "Point", "coordinates": [-159.73541050128992, 40.00308031667379]}}, {"type": "Feature", "properties": {"norad_id": 67154, "name": "KUIPER-00249", "group": "last-30-days", "lat": 35.40237054705013, "lon": -152.45081823669838, "alt_km": 451.4954426329841, "timestamp": "2025-12-25T22:42:15.712946+00:00", "meta": {"OBJECT_NAME": "KUIPER-00249", "OBJECT_ID": "2025-301X", "EPOCH": "2025-12-25T18:00:02.000160", "MEAN_MOTION": 15.3476221, "ECCENTRICITY": 0.0008009, "INCLINATION": 51.8648, "RA_OF_ASC_NODE": 62.4375, "ARG_OF_PERICENTER": 137.6203, "MEAN_ANOMALY": 351.2938, "EPHEMERIS_TYPE": 0, "CLASSIFICATION_TYPE": "U", "NORAD_CAT_ID": 67154, "ELEMENT_SET_NO": 999, "REV_AT_EPOCH": 221, "BSTAR": 0.00083558, "MEAN_MOTION_DOT": 0.00028338, "MEAN_MOTION_DDOT": 0}, "tle": {"line1": "1 67154U 25301X   25359.75002315  .00028338  00000+0  83558-3 0  9996", "line2": "2 67154  51.8648  62.4375 0008009 137.6203 351.2938 15.34762210  2210"}}, "geometry": {"type": "Point", "coordinates": [-152.45081823669838, 35.40237054705013]}}, {"type": "Feature", "properties": {"norad_id": 67155, "name": "KUIPER-00250", "group": "last-30-days", "lat": 23.689745012591256, "lon": -138.70264771992646, "alt_km": 453.2968862361613, "timestamp": "2025-12-25T22:42:15.712956+00:00", "meta": {"OBJECT_NAME": "KUIPER-00250", "OBJECT_ID": "2025-301Y", "EPOCH": "2025-12-25T18:00:02.000160", "MEAN_MOTION": 15.35319738, "ECCENTRICITY": 0.0006069, "INCLINATION": 51.871, "RA_OF_ASC_NODE": 62.4018, "ARG_OF_PERICENTER": 128.1092, "MEAN_ANOMALY": 17.0888, "EPHEMERIS_TYPE": 0, "CLASSIFICATION_TYPE": "U", "NORAD_CAT_ID": 67155, "ELEMENT_SET_NO": 999, "REV_AT_EPOCH": 239, "BSTAR": 0.00056265, "MEAN_MOTION_DOT": 0.00019271, "MEAN_MOTION_DDOT": 0}, "tle": {"line1": "1 67155U 25301Y   25359.75002315  .00019271  00000+0  56265-3 0  9998", "line2": "2 67155  51.8710  62.4018 0006069 128.1092  17.0888 15.35319738  2394"}}, "geometry": {"type": "Point", "coordinates": [-138.70264771992646, 23.689745012591256]}}, {"type": "Feature", "properties": {"norad_id": 67156, "name": "KUIPER-00251", "group": "last-30-days", "lat": 38.09674590496078, "lon": -156.5182747817095, "alt_km": 450.71057586487495, "timestamp": "2025-12-25T22:42:15.712968+00:00", "meta": {"OBJECT_NAME": "KUIPER-00251", "OBJECT_ID": "2025-301Z", "EPOCH": "2025-12-25T18:00:02.000160", "MEAN_MOTION": 15.34741586, "ECCENTRICITY": 0.0008686, "INCLINATION": 51.8659, "RA_OF_ASC_NODE": 62.4457, "ARG_OF_PERICENTER": 135.8342, "MEAN_ANOMALY": 348.8733, "EPHEMERIS_TYPE": 0, "CLASSIFICATION_TYPE": "U", "NORAD_CAT_ID": 67156, "ELEMENT_SET_NO": 999, "REV_AT_EPOCH": 255, "BSTAR": 0.00057427, "MEAN_MOTION_DOT": 0.00019323, "MEAN_MOTION_DDOT": 0}, "tle": {"line1": "1 67156U 25301Z   25359.75002315  .00019323  00000+0  57427-3 0  9998", "line2": "2 67156  51.8659  62.4457 0008686 135.8342 348.8733 15.34741586  2555"}}, "geometry": {"type": "Point", "coordinates": [-156.5182747817095, 38.09674590496078]}}, {"type": "Feature", "properties": {"norad_id": 67157, "name": "KUIPER-00252", "group": "last-30-days", "lat": 46.1792945830689, "lon": -173.4207440678958, "alt_km": 451.2091021953747, "timestamp": "2025-12-25T22:42:15.712978+00:00", "meta": {"OBJECT_NAME": "KUIPER-00252", "OBJECT_ID": "2025-301AA", "EPOCH": "2025-12-25T18:00:02.000160", "MEAN_MOTION": 15.34263002, "ECCENTRICITY": 0.0010001, "INCLINATION": 51.8648, "RA_OF_ASC_NODE": 62.4752, "ARG_OF_PERICENTER": 148.2863, "MEAN_ANOMALY": 321.947, "EPHEMERIS_TYPE": 0, "CLASSIFICATION_TYPE": "U", "NORAD_CAT_ID": 67157, "ELEMENT_SET_NO": 999, "REV_AT_EPOCH": 224, "BSTAR": 0.00072643, "MEAN_MOTION_DOT": 0.00024194, "MEAN_MOTION_DDOT": 0}, "tle": {"line1": "1 67157U 25301AA  25359.75002315  .00024194  00000+0  72643-3 0  9998", "line2": "2 67157  51.8648  62.4752 0010001 148.2863 321.9470 15.34263002  2240"}}, "geometry": {"type": "Point", "coordinates": [-173.4207440678958, 46.1792945830689]}}, {"type": "Feature", "properties": {"norad_id": 67158, "name": "KUIPER-00261", "group": "last-30-days", "lat": 19.44266109800878, "lon": -134.65150704390152, "alt_km": 454.3395169426085, "timestamp": "2025-12-25T22:42:15.712990+00:00", "meta": {"OBJECT_NAME": "KUIPER-00261", "OBJECT_ID": "2025-301AB", "EPOCH": "2025-12-25T18:00:02.000160", "MEAN_MOTION": 15.35388074, "ECCENTRICITY": 0.0005538, "INCLINATION": 51.8692, "RA_OF_ASC_NODE": 62.392, "ARG_OF_PERICENTER": 125.4787, "MEAN_ANOMALY": 25.3421, "EPHEMERIS_TYPE": 0, "CLASSIFICATION_TYPE": "U", "NORAD_CAT_ID": 67158, "ELEMENT_SET_NO": 999, "REV_AT_EPOCH": 183, "BSTAR": 0.00057433, "MEAN_MOTION_DOT": 0.00019722, "MEAN_MOTION_DDOT": 0}, "tle": {"line1": "1 67158U 25301AB  25359.75002315  .00019722  00000+0  57433-3 0  9990", "line2": "2 67158  51.8692  62.3920 0005538 125.4787  25.3421 15.35388074  1830"}}, "geometry": {"type": "Point", "coordinates": [-134.65150704390152, 19.44266109800878]}}, {"type": "Feature", "properties": {"norad_id": 67159, "name": "KUIPER-00265", "group": "last-30-days", "lat": -6.859617033247642, "lon": -113.2054553920485, "alt_km": 458.52143606235495, "timestamp": "2025-12-25T22:42:15.713000+00:00", "meta": {"OBJECT_NAME": "KUIPER-00265", "OBJECT_ID": "2025-301AC", "EPOCH": "2025-12-25T18:00:02.000160", "MEAN_MOTION": 15.36383632, "ECCENTRICITY": 0.0001755, "INCLINATION": 51.8736, "RA_OF_ASC_NODE": 62.3197, "ARG_OF_PERICENTER": 92.2747, "MEAN_ANOMALY": 91.6182, "EPHEMERIS_TYPE": 0, "CLASSIFICATION_TYPE": "U", "NORAD_CAT_ID": 67159, "ELEMENT_SET_NO": 999, "REV_AT_EPOCH": 239, "BSTAR": 0.00049242, "MEAN_MOTION_DOT": 0.00017399, "MEAN_MOTION_DDOT": 0}, "tle": {"line1": "1 67159U 25301AC  25359.75002315  .00017399  00000+0  49242-3 0  9998", "line2": "2 67159  51.8736  62.3197 0001755  92.2747  91.6182 15.36383632  2398"}}, "geometry": {"type": "Point", "coordinates": [-113.2054553920485, -6.859617033247642]}}, {"type": "Feature", "properties": {"norad_id": 67160, "name": "GALILEO A", "group": "last-30-days", "lat": 3.9163570956697766, "lon": -75.79939626935423, "alt_km": 22932.283122423272, "timestamp": "2025-12-25T22:42:15.713011+00:00", "meta": {"OBJECT_NAME": "GALILEO A", "OBJECT_ID": "2025-302A", "EPOCH": "2025-12-18T03:30:19.486368", "MEAN_MOTION": 1.72906186, "ECCENTRICITY": 0.00084238, "INCLINATION": 54.2406, "RA_OF_ASC_NODE": 107.2544, "ARG_OF_PERICENTER": 237.6458, "MEAN_ANOMALY": 122.2317, "EPHEMERIS_TYPE": 0, "CLASSIFICATION_TYPE": "U", "NORAD_CAT_ID": 67160, "ELEMENT_SET_NO": 999, "REV_AT_EPOCH": 2, "BSTAR": 0, "MEAN_MOTION_DOT": -7e-08, "MEAN_MOTION_DDOT": 0}, "tle": {"line1": "1 67160U 25302A   25352.14605887 -.00000007  00000+0  00000+0 0  9994", "line2": "2 67160  54.2406 107.2544 0008423 237.6458 122.2317  1.72906186    28"}}, "geometry": {"type": "Point", "coordinates": [-75.79939626935423, 3.9163570956697766]}}]}